[{"OBJECT_NAME":"STARLINK-5846","OBJECT_ID":"2023-064AW","EPOCH":"2026-03-09T22:00:01.999584","MEAN_MOTION":14.9830034,"ECCENTRICITY":0.00034877,"INCLINATION":70.0001,"RA_OF_ASC_NODE":103.86,"ARG_OF_PERICENTER":266.4052,"MEAN_ANOMALY":220.0268,"EPHEMERIS_TYPE":0,"CLASSIFICATION_TYPE":"U","NORAD_CAT_ID":56492,"ELEMENT_SET_NO":999,"REV_AT_EPOCH":571,"BSTAR":0.0050708527,"MEAN_MOTION_DOT":0.00060895,"MEAN_MOTION_DDOT":0},{"OBJECT_NAME":"OV1-5 DEB","OBJECT_ID":"1966-025G","EPOCH":"2026-03-09T05:46:25.644576","MEAN_MOTION":14.96071423,"ECCENTRICITY":0.0021156,"INCLINATION":144.6099,"RA_OF_ASC_NODE":304.3983,"ARG_OF_PERICENTER":142.8833,"MEAN_ANOMALY":217.3344,"EPHEMERIS_TYPE":0,"CLASSIFICATION_TYPE":"U","NORAD_CAT_ID":5599,"ELEMENT_SET_NO":999,"REV_AT_EPOCH":8962,"BSTAR":0.0043119514,"MEAN_MOTION_DOT":0.00050705,"MEAN_MOTION_DDOT":0}]
